      2.10          N: GNSS NAV DATA                        RINEX VERSION / TYPE
fic2rin                                 08/29/2022 00:17:34 PGM / RUN BY / DATE
                                                            END OF HEADER
27 22  8 28 15 59 44.0  .216566491872D-03 -.284217094304D-11  .000000000000D+00
     .700000000000D+01 -.212812500000D+02  .410909973193D-08 -.328716634722D+00
    -.985339283943D-06  .105621544644D-01  .109616667032D-04  .515366443253D+04
     .575840000000D+05  .428408384323D-07 -.194408640620D+00  .128522515297D-06
     .971473494525D+00  .177375000000D+03  .689268907937D+00 -.797568936233D-08
    -.307155651409D-09  .100000000000D+01  .222500000000D+04  .000000000000D+00
     .240000000000D+01  .000000000000D+00  .139698386192D-08  .700000000000D+01
     .504000000000D+05  .400000000000D+01
2  22  8 28 16  0  0.0 -.647820066661D-03  .113686837722D-11  .000000000000D+00
     .800000000000D+01  .110750000000D+03  .424517682865D-08 -.281050658458D+01
     .566057860851D-05  .199711881578D-01  .946968793869D-05  .515489053726D+04
     .576000000000D+05  .245869159698D-06  .775079697478D+00  .214204192162D-06
     .966421870161D+00  .192937500000D+03 -.139636730698D+01 -.764638993140D-08
     .537879547699D-09  .100000000000D+01  .222500000000D+04  .000000000000D+00
     .240000000000D+01  .000000000000D+00 -.172294676304D-07  .800000000000D+01
     .504000000000D+05  .400000000000D+01
1  22  8 28 16  0  0.0  .293830409646D-03 -.682121026330D-11  .000000000000D+00
     .720000000000D+02  .107375000000D+03  .394445001646D-08 -.257653400915D+01
     .531412661076D-05  .120046815136D-01  .795722007751D-05  .515365916634D+04
     .576000000000D+05  .145286321640D-06  .868347786536D+00 -.104308128357D-06
     .988380516301D+00  .240343750000D+03  .942736743695D+00 -.766067624077D-08
     .557166065346D-09  .100000000000D+01  .222500000000D+04  .000000000000D+00
     .240000000000D+01  .000000000000D+00  .512227416039D-08  .720000000000D+02
     .504000000000D+05  .400000000000D+01
5  22  8 28 16  0  0.0 -.945674255490D-04 -.136424205266D-11  .000000000000D+00
     .270000000000D+02 -.136875000000D+02  .511878464650D-08 -.209112597008D-01
    -.577419996262D-06  .613512890413D-02  .203214585781D-05  .515377010727D+04
     .576000000000D+05 -.521540641785D-07  .185888173434D+01  .223517417908D-07
     .961833383718D+00  .339750000000D+03  .109793802409D+01 -.871857744946D-08
    -.917895376884D-10  .100000000000D+01  .222500000000D+04  .000000000000D+00
     .240000000000D+01  .000000000000D+00 -.111758708954D-07  .270000000000D+02
     .504000000000D+05  .400000000000D+01
3  22  8 28 16  0  0.0 -.340918544680D-03 -.727595761418D-11  .000000000000D+00
     .500000000000D+02 -.293750000000D+02  .464912222603D-08  .259892522847D+01
    -.164285302162D-05  .449669745285D-02  .212527811527D-05  .515356179237D+04
     .576000000000D+05 -.465661287308D-07  .190186385331D+01 -.104308128357D-06
     .974831824858D+00  .343812500000D+03  .104306942508D+01 -.829248827256D-08
    -.158578033983D-09  .100000000000D+01  .222500000000D+04  .000000000000D+00
     .240000000000D+01  .000000000000D+00  .186264514923D-08  .500000000000D+02
     .504000000000D+05  .400000000000D+01
7  22  8 28 16  0  0.0  .311696901917D-03 -.261479726760D-11  .000000000000D+00
     .530000000000D+02  .633750000000D+02  .454876090272D-08  .307204274563D+01
     .307150185108D-05  .163708569016D-01  .946968793869D-05  .515364468575D+04
     .576000000000D+05  .353902578354D-07 -.228308977908D+01 -.152736902237D-06
     .950663560919D+00  .187406250000D+03 -.224464367021D+01 -.782746890264D-08
     .497520723735D-09  .100000000000D+01  .222500000000D+04  .000000000000D+00
     .240000000000D+01  .000000000000D+00 -.111758708954D-07  .530000000000D+02
     .504000000000D+05  .400000000000D+01
6  22  8 28 16  0  0.0  .441577751189D-03  .134150468512D-10  .000000000000D+00
     .560000000000D+02  .107187500000D+03  .399802367659D-08 -.233200035308D+01
     .569038093090D-05  .245940871537D-02  .875070691109D-05  .515378870773D+04
     .576000000000D+05 -.558793544769D-08  .860072306195D+00  .558793544769D-07
     .987696217352D+00  .225187500000D+03 -.904211637256D+00 -.779961059937D-08
     .523950396066D-09  .100000000000D+01  .222500000000D+04  .000000000000D+00
     .240000000000D+01  .000000000000D+00  .372529029846D-08  .560000000000D+02
     .504000000000D+05  .400000000000D+01
4  22  8 28 16  0  0.0 -.126788858324D-03  .534328137292D-11  .000000000000D+00
     .218000000000D+03 -.746250000000D+02  .428982154543D-08 -.677013800342D+00
    -.404380261898D-05  .196087791119D-02  .112019479275D-04  .515376519966D+04
     .576000000000D+05  .298023223877D-07  .298330743656D+01 -.130385160446D-07
     .962197013951D+00  .165593750000D+03 -.307154446842D+01 -.788497129785D-08
    -.342157109360D-09  .100000000000D+01  .222500000000D+04  .000000000000D+00
     .240000000000D+01  .000000000000D+00 -.465661287308D-08  .218000000000D+03
     .504000000000D+05  .400000000000D+01
16 22  8 28 16  0  0.0 -.522272195667D-03 -.136424205266D-11  .000000000000D+00
     .100000000000D+02 -.228437500000D+02  .465947980032D-08  .596700769588D+00
    -.103935599327D-05  .127336170990D-01  .439956784248D-05  .515369573975D+04
     .576000000000D+05 -.130385160446D-06 -.115036964734D+01  .169500708580D-06
     .967658591847D+00  .298593750000D+03  .731427169963D+00 -.840856453618D-08
    -.278940190407D-09  .100000000000D+01  .222500000000D+04  .000000000000D+00
     .240000000000D+01  .000000000000D+00 -.102445483208D-07  .100000000000D+02
     .504000000000D+05  .400000000000D+01
12 22  8 28 16  0  0.0 -.269453972578D-03 -.602540239925D-11  .000000000000D+00
     .190000000000D+02 -.199687500000D+02  .461733518769D-08  .238518597017D+01
    -.112317502499D-05  .848555483390D-02  .407733023167D-05  .515373922348D+04
     .576000000000D+05  .117346644402D-06 -.116885950844D+01 -.521540641785D-07
     .967807015127D+00  .301718750000D+03  .131516379945D+01 -.812140971788D-08
    -.138934358602D-09  .100000000000D+01  .222500000000D+04  .000000000000D+00
     .240000000000D+01  .000000000000D+00 -.125728547573D-07  .190000000000D+02
     .504000000000D+05  .400000000000D+01
8  22  8 28 16  0  0.0 -.823154114187D-04 -.147792889038D-11  .000000000000D+00
     .700000000000D+02 -.282187500000D+02  .425124851014D-08 -.348245831825D+00
    -.140257179737D-05  .746257835999D-02  .108256936073D-04  .515358482742D+04
     .576000000000D+05  .145286321640D-06 -.215434241998D+00  .204890966415D-07
     .962676956411D+00  .170625000000D+03  .166695821264D+00 -.797426073140D-08
    -.334656796942D-09  .100000000000D+01  .222500000000D+04  .000000000000D+00
     .340000000000D+01  .000000000000D+00  .512227416039D-08  .700000000000D+02
     .504000000000D+05  .400000000000D+01
24 22  8 28 16  0  0.0  .154155306518D-03 -.121644916362D-10  .000000000000D+00
     .200000000000D+02  .403125000000D+02  .486805991709D-08 -.224761568338D+01
     .211969017982D-05  .128721095389D-01  .103078782558D-04  .515368036842D+04
     .576000000000D+05  .113621354103D-06 -.236911858437D+01 -.115483999252D-06
     .934269448461D+00  .165437500000D+03  .831357851700D+00 -.801426239763D-08
     .550737226130D-09  .100000000000D+01  .222500000000D+04  .000000000000D+00
     .240000000000D+01  .000000000000D+00  .279396772385D-08  .200000000000D+02
     .504000000000D+05  .400000000000D+01
29 22  8 28 16  0  0.0 -.546770170331D-03 -.329691829393D-11  .000000000000D+00
     .580000000000D+02 -.225625000000D+02  .380265839599D-08 -.391980467080D+00
    -.136345624924D-05  .225607899483D-02  .117868185043D-04  .515365791512D+04
     .576000000000D+05 -.223517417908D-07 -.117209052102D+00 -.931322574615D-07
     .980168819188D+00  .159812500000D+03  .242665462432D+01 -.766067624077D-08
    -.293226499775D-09  .100000000000D+01  .222500000000D+04  .000000000000D+00
     .240000000000D+01  .000000000000D+00 -.102445483208D-07  .580000000000D+02
     .504000000000D+05  .400000000000D+01
15 22  8 28 16  0  0.0 -.335881486535D-04  .306954461848D-11  .000000000000D+00
     .101000000000D+03 -.100218750000D+03  .515485757765D-08 -.130644732392D+01
    -.507384538651D-05  .144787530880D-01  .895187258720D-05  .515361188507D+04
     .576000000000D+05  .273808836937D-06  .281770122155D+01  .296160578728D-06
     .931255389565D+00  .188375000000D+03  .112336719760D+01 -.838570644119D-08
    -.471091051405D-09  .100000000000D+01  .222500000000D+04  .000000000000D+00
     .240000000000D+01  .000000000000D+00 -.107102096081D-07  .101000000000D+03
     .504000000000D+05  .400000000000D+01
9  22  8 28 16  0  0.0 -.302919186652D-03  .443378667114D-11  .000000000000D+00
     .650000000000D+02 -.835000000000D+02  .450447334368D-08  .120092987361D+00
    -.438839197159D-05  .240320619196D-02  .107157975435D-04  .515377695656D+04
     .576000000000D+05 -.167638063431D-07  .292882096638D+01  .316649675369D-07
     .955284253504D+00  .169937500000D+03  .189989016178D+01 -.807033616189D-08
    -.357872049664D-09  .100000000000D+01  .222500000000D+04  .000000000000D+00
     .240000000000D+01  .000000000000D+00  .139698386192D-08  .650000000000D+02
     .504000000000D+05  .400000000000D+01
31 22  8 28 16  0  0.0 -.191317871213D-03 -.136424205266D-11  .000000000000D+00
     .800000000000D+02  .508125000000D+02  .455768984608D-08  .254147437717D+01
     .245496630669D-05  .104685443221D-01  .946968793869D-05  .515357512856D+04
     .576000000000D+05 -.150874257088D-06 -.226420495204D+01 -.117346644402D-06
     .954816004148D+00  .197000000000D+03  .415520066844D+00 -.798033241288D-08
     .414660129402D-09  .100000000000D+01  .222500000000D+04  .000000000000D+00
     .240000000000D+01  .000000000000D+00 -.135041773319D-07  .800000000000D+02
     .504000000000D+05  .400000000000D+01
